STARLINK-3087
1 19175C 21082AX  21326.18025012 -.00002616  00000-0 -21910-4 0  3260
2 19175  69.9990 292.6831 0003843 285.4347  31.4786 15.69754247    12
